{
  "links" : {
    "next" : "https://api.nasa.gov/neo/rest/v1/feed?start_date=2011-10-09&end_date=2011-10-09&detailed=true&api_key=t0TVs3DtDT2H8Oy2Zy8m2eVrNsAVKAexjcZXUckd",
    "prev" : "https://api.nasa.gov/neo/rest/v1/feed?start_date=2011-10-07&end_date=2011-10-07&detailed=true&api_key=t0TVs3DtDT2H8Oy2Zy8m2eVrNsAVKAexjcZXUckd",
    "self" : "https://api.nasa.gov/neo/rest/v1/feed?start_date=2011-10-08&end_date=2011-10-08&detailed=true&api_key=t0TVs3DtDT2H8Oy2Zy8m2eVrNsAVKAexjcZXUckd"
  },
  "element_count" : 5,
  "near_earth_objects" : {
    "2011-10-08" : [ {
      "links" : {
        "self" : "https://api.nasa.gov/neo/rest/v1/neo/2401954?api_key=t0TVs3DtDT2H8Oy2Zy8m2eVrNsAVKAexjcZXUckd"
      },
      "neo_reference_id" : "2401954",
      "name" : "401954 (2002 RW25)",
      "nasa_jpl_url" : "http://ssd.jpl.nasa.gov/sbdb.cgi?sstr=2401954",
      "absolute_magnitude_h" : 18.8,
      "estimated_diameter" : {
        "kilometers" : {
          "estimated_diameter_min" : 0.4619074603,
          "estimated_diameter_max" : 1.0328564805
        },
        "meters" : {
          "estimated_diameter_min" : 461.9074602816,
          "estimated_diameter_max" : 1032.8564805039
        },
        "miles" : {
          "estimated_diameter_min" : 0.2870159005,
          "estimated_diameter_max" : 0.6417870641
        },
        "feet" : {
          "estimated_diameter_min" : 1515.4444719902,
          "estimated_diameter_max" : 3388.6368554964
        }
      },
      "is_potentially_hazardous_asteroid" : true,
      "close_approach_data" : [ {
        "close_approach_date" : "2011-10-08",
        "epoch_date_close_approach" : 1318057200000,
        "relative_velocity" : {
          "kilometers_per_second" : "15.9697226214",
          "kilometers_per_hour" : "57491.0014370094",
          "miles_per_hour" : "35722.6725317906"
        },
        "miss_distance" : {
          "astronomical" : "0.3062360935",
          "lunar" : "119.1258392334",
          "kilometers" : "45812268",
          "miles" : "28466424"
        },
        "orbiting_body" : "Earth"
      } ],
      "orbital_data" : {
        "orbit_id" : "34",
        "orbit_determination_date" : "2017-07-03 06:20:29",
        "orbit_uncertainty" : "1",
        "minimum_orbit_intersection" : ".0160302",
        "jupiter_tisserand_invariant" : "7.060",
        "epoch_osculation" : "2458000.5",
        "eccentricity" : ".286890658468444",
        "semi_major_axis" : ".8263226900946545",
        "inclination" : "1.327445308802628",
        "ascending_node_longitude" : "92.06991506419345",
        "orbital_period" : "274.3613582894533",
        "perihelion_distance" : ".5892584294259831",
        "perihelion_argument" : "71.73387784619896",
        "aphelion_distance" : "1.063386950763326",
        "perihelion_time" : "2458113.076318718553",
        "mean_anomaly" : "212.2843195144033",
        "mean_motion" : "1.312138131420815",
        "equinox" : "J2000"
      }
    }, {
      "links" : {
        "self" : "https://api.nasa.gov/neo/rest/v1/neo/3590266?api_key=t0TVs3DtDT2H8Oy2Zy8m2eVrNsAVKAexjcZXUckd"
      },
      "neo_reference_id" : "3590266",
      "name" : "(2011 XM1)",
      "nasa_jpl_url" : "http://ssd.jpl.nasa.gov/sbdb.cgi?sstr=3590266",
      "absolute_magnitude_h" : 20.0,
      "estimated_diameter" : {
        "kilometers" : {
          "estimated_diameter_min" : 0.2658,
          "estimated_diameter_max" : 0.5943468684
        },
        "meters" : {
          "estimated_diameter_min" : 265.8,
          "estimated_diameter_max" : 594.3468684194
        },
        "miles" : {
          "estimated_diameter_min" : 0.1651604118,
          "estimated_diameter_max" : 0.369309908
        },
        "feet" : {
          "estimated_diameter_min" : 872.047272,
          "estimated_diameter_max" : 1949.9569797852
        }
      },
      "is_potentially_hazardous_asteroid" : true,
      "close_approach_data" : [ {
        "close_approach_date" : "2011-10-08",
        "epoch_date_close_approach" : 1318057200000,
        "relative_velocity" : {
          "kilometers_per_second" : "16.8265466172",
          "kilometers_per_hour" : "60575.5678217749",
          "miles_per_hour" : "37639.3021279245"
        },
        "miss_distance" : {
          "astronomical" : "0.2415600704",
          "lunar" : "93.9668655396",
          "kilometers" : "36136872",
          "miles" : "22454412"
        },
        "orbiting_body" : "Earth"
      } ],
      "orbital_data" : {
        "orbit_id" : "19",
        "orbit_determination_date" : "2017-04-06 08:51:46",
        "orbit_uncertainty" : "5",
        "minimum_orbit_intersection" : ".0447622",
        "jupiter_tisserand_invariant" : "3.004",
        "epoch_osculation" : "2458000.5",
        "eccentricity" : ".6596143374569253",
        "semi_major_axis" : "2.672946309144812",
        "inclination" : "11.15281659969169",
        "ascending_node_longitude" : "262.9148371190666",
        "orbital_period" : "1596.187038083273",
        "perihelion_distance" : ".9098326003803229",
        "perihelion_argument" : "162.8481806591395",
        "aphelion_distance" : "4.436060017909301",
        "perihelion_time" : "2457470.437628519839",
        "mean_anomaly" : "119.5489307831999",
        "mean_motion" : ".2255374786355199",
        "equinox" : "J2000"
      }
    }, {
      "links" : {
        "self" : "https://api.nasa.gov/neo/rest/v1/neo/3726791?api_key=t0TVs3DtDT2H8Oy2Zy8m2eVrNsAVKAexjcZXUckd"
      },
      "neo_reference_id" : "3726791",
      "name" : "(2015 RH2)",
      "nasa_jpl_url" : "http://ssd.jpl.nasa.gov/sbdb.cgi?sstr=3726791",
      "absolute_magnitude_h" : 21.9,
      "estimated_diameter" : {
        "kilometers" : {
          "estimated_diameter_min" : 0.1108038821,
          "estimated_diameter_max" : 0.2477650126
        },
        "meters" : {
          "estimated_diameter_min" : 110.8038821264,
          "estimated_diameter_max" : 247.7650126055
        },
        "miles" : {
          "estimated_diameter_min" : 0.068850319,
          "estimated_diameter_max" : 0.1539539936
        },
        "feet" : {
          "estimated_diameter_min" : 363.5298086356,
          "estimated_diameter_max" : 812.8773639568
        }
      },
      "is_potentially_hazardous_asteroid" : true,
      "close_approach_data" : [ {
        "close_approach_date" : "2011-10-08",
        "epoch_date_close_approach" : 1318057200000,
        "relative_velocity" : {
          "kilometers_per_second" : "10.3245136941",
          "kilometers_per_hour" : "37168.2492985822",
          "miles_per_hour" : "23094.9046822218"
        },
        "miss_distance" : {
          "astronomical" : "0.1459547613",
          "lunar" : "56.7764015198",
          "kilometers" : "21834522",
          "miles" : "13567342"
        },
        "orbiting_body" : "Earth"
      } ],
      "orbital_data" : {
        "orbit_id" : "42",
        "orbit_determination_date" : "2017-04-06 08:32:12",
        "orbit_uncertainty" : "3",
        "minimum_orbit_intersection" : ".0118873",
        "jupiter_tisserand_invariant" : "5.202",
        "epoch_osculation" : "2458000.5",
        "eccentricity" : ".2665291322215915",
        "semi_major_axis" : "1.217696251228673",
        "inclination" : "5.350606603447778",
        "ascending_node_longitude" : "332.5034193512892",
        "orbital_period" : "490.802629047004",
        "perihelion_distance" : ".8931447260792097",
        "perihelion_argument" : "115.3149078058937",
        "aphelion_distance" : "1.542247776378136",
        "perihelion_time" : "2457861.112885086149",
        "mean_anomaly" : "102.2393899283305",
        "mean_motion" : ".7334924034514959",
        "equinox" : "J2000"
      }
    } ]
  }
}